MOLNIYA 3-39            
1 20813U 90084A   08166.94558052  .00000910  00000-0  00000+0 0  9858
2 20813  62.1214 123.0046 7386805 264.7268  15.6199  2.00195540129931
MOLNIYA 1-80            
1 21118U 91012A   08163.41533086  .00000670  00000-0  82789-1 0  4885
2 21118  63.1355 324.2252 7316544 248.5449  23.7823  2.01003057126905
MOLNIYA 3-40            
1 21196U 91022A   08166.30725642  .00000229  00000-0  53405-1 0  7868
2 21196  62.6858 306.1247 7335584 250.0818  22.7124  2.00883844126260
MOLNIYA 1-81            
1 21426U 91043A   08166.40005383 -.00000138  00000-0 -49644-3 0  9248
2 21426  62.3667 296.6216 7404872 261.2544  16.7939  2.00628195124527
MOLNIYA 3-41            
1 21706U 91065A   08165.91911280  .00000238  00000-0 -14739-2 0  2261
2 21706  62.0575 120.7093 7318526 271.4144  13.9719  2.00538861122659
MOLNIYA 3-42            
1 22178U 92067A   08167.26244723  .00000178  00000-0 -48377-3 0  6015
2 22178  62.0700 246.5608 7322012 260.4726  17.9086  2.00603277114815
MOLNIYA 3-43            
1 22255U 92085A   08166.82617063  .00084950  12679-5  40977-3 0   946
2 22255  63.2497  24.3474 7511657 256.0087  17.7205  2.04896386113882
MOLNIYA 1-86            
1 22671U 93035A   08167.32285020  .00001718  00000-0  62535-2 0    49
2 22671  62.0330 197.4781 7269536 265.8879  16.0436  2.03228470110554
MOLNIYA 3-45            
1 22729U 93049A   08166.62162691  .00001367  00000-0  00000+0 0  6590
2 22729  63.3781 340.9975 7369393 250.4519  22.0665  2.00303944108875
MOLNIYA 1-87            
1 22949U 93079A   08167.73807128 -.00001286  00000-0  10000-3 0  1750
2 22949  64.0332 105.5660 7012083 250.3001  26.1836  2.00355327106179
MOLNIYA 3-46            
1 23211U 94051A   08166.05159836  .00000567  00000-0  43919-3 0  4033
2 23211  62.2627 165.6203 7460442 256.1623  18.3027  2.01245439101239
MOLNIYA 1-88            
1 23420U 94081A   08167.49126140  .00001796  00000-0  14983-3 0  7609
2 23420  62.4678 296.0753 7485441 256.9998  17.7755  2.02189578 98987
MOLNIYA 3-47            
1 23642U 95042A   08166.82402967 -.00000239  00000-0  10000-3 0  2077
2 23642  63.7901  91.3303 7155593 254.3000  22.3286  2.00639544 94170
MOLNIYA 1-89            
1 24273U 96045A   08167.65090419 -.00000351  00000-0  14596-3 0  6432
2 24273  63.6106  29.0546 7497425 253.6488  16.3145  2.00618763 86706
MOLNIYA 1-90            
1 24960U 97054A   08167.24585963  .00000116  00000-0  10000-3 0  1321
2 24960  63.9434 133.5661 7031695 256.7853 236.7344  2.00593031 78629
MOLNIYA 3-49            
1 25379U 98040A   08165.89299867  .00000300  00000-0  10000-3 0  7068
2 25379  64.0628 107.7491 7229702 256.7778  20.3385  2.00664834 72939
MOLNIYA 1-91            
1 25485U 98054A   08167.79685361  .00000408  00000-0  10000-3 0  2367
2 25485  63.8629 217.4268 6824895 265.0745  92.1044  2.00594053 71153
MOLNIYA 3-50            
1 25847U 99036A   08166.47697574  .00000065  00000-0  10000-3 0  4308
2 25847  64.0147 317.6588 7156023 268.4438  16.2072  2.00637280 65475
MOLNIYA 3-51            
1 26867U 01030A   08167.75937575  .00000051  00000-0  00000+0 0  5411
2 26867  64.1018 246.2683 7138531 271.5128  16.7543  2.00603009 50603
MOLNIYA 1-92            
1 27707U 03011A   08167.82610464  .00000064  00000-0  65181-1 0  9724
2 27707  64.8620 248.6157 7122600 271.4353  67.0641  2.00665359 38143
MOLNIYA 3-53            
1 27834U 03029A   08167.77122649  .00000139  00000-0  00000+0 0  7954
2 27834  64.8584 248.4006 7124845 272.0701  16.9113  2.00617309 36564
MOLNIYA 1-93            
1 28163U 04005A   08167.54787833 -.00000457  00000-0  00000+0 0  5561
2 28163  64.7449 338.3847 7328074 281.4682  37.3526  2.00659424 31679
